<?xml version="1.0" encoding="UTF-8"?>
<gpx version="1.1" creator="gpsarrow sample" xmlns="http://www.topografix.com/GPX/1/1">
  <metadata><name>示範路線</name></metadata>
  <trk>
    <name>示範路線</name>
    <trkseg>
      <trkpt lat="24.1477000" lon="120.6736000"><ele>80.0</ele></trkpt>
      <trkpt lat="24.1477000" lon="120.6736984"><ele>80.0</ele></trkpt>
      <trkpt lat="24.1477000" lon="120.6737969"><ele>80.1</ele></trkpt>
      <trkpt lat="24.1477000" lon="120.6738953"><ele>80.2</ele></trkpt>
      <trkpt lat="24.1477000" lon="120.6739938"><ele>80.2</ele></trkpt>
      <trkpt lat="24.1477000" lon="120.6740922"><ele>80.2</ele></trkpt>
      <trkpt lat="24.1477000" lon="120.6741907"><ele>80.3</ele></trkpt>
      <trkpt lat="24.1477000" lon="120.6742891"><ele>80.3</ele></trkpt>
      <trkpt lat="24.1477000" lon="120.6743876"><ele>80.4</ele></trkpt>
      <trkpt lat="24.1477000" lon="120.6744860"><ele>80.5</ele></trkpt>
      <trkpt lat="24.1477000" lon="120.6745845"><ele>80.5</ele></trkpt>
      <trkpt lat="24.1477000" lon="120.6746829"><ele>80.5</ele></trkpt>
      <trkpt lat="24.1477000" lon="120.6747813"><ele>80.6</ele></trkpt>
      <trkpt lat="24.1477000" lon="120.6748798"><ele>80.7</ele></trkpt>
      <trkpt lat="24.1477000" lon="120.6749782"><ele>80.7</ele></trkpt>
      <trkpt lat="24.1477000" lon="120.6750767"><ele>80.8</ele></trkpt>
      <trkpt lat="24.1477000" lon="120.6751751"><ele>80.8</ele></trkpt>
      <trkpt lat="24.1477000" lon="120.6752736"><ele>80.8</ele></trkpt>
      <trkpt lat="24.1477000" lon="120.6753720"><ele>80.9</ele></trkpt>
      <trkpt lat="24.1477000" lon="120.6754705"><ele>81.0</ele></trkpt>
      <trkpt lat="24.1477000" lon="120.6755689"><ele>81.0</ele></trkpt>
      <trkpt lat="24.1477000" lon="120.6756674"><ele>81.0</ele></trkpt>
      <trkpt lat="24.1477000" lon="120.6757658"><ele>81.1</ele></trkpt>
      <trkpt lat="24.1477000" lon="120.6758643"><ele>81.2</ele></trkpt>
      <trkpt lat="24.1477000" lon="120.6759627"><ele>81.2</ele></trkpt>
      <trkpt lat="24.1477000" lon="120.6760611"><ele>81.2</ele></trkpt>
      <trkpt lat="24.1477000" lon="120.6761596"><ele>81.3</ele></trkpt>
      <trkpt lat="24.1477000" lon="120.6762580"><ele>81.3</ele></trkpt>
      <trkpt lat="24.1477000" lon="120.6763565"><ele>81.4</ele></trkpt>
      <trkpt lat="24.1477000" lon="120.6764549"><ele>81.5</ele></trkpt>
      <trkpt lat="24.1477000" lon="120.6765534"><ele>81.5</ele></trkpt>
      <trkpt lat="24.1477000" lon="120.6766518"><ele>81.5</ele></trkpt>
      <trkpt lat="24.1477000" lon="120.6767503"><ele>81.6</ele></trkpt>
      <trkpt lat="24.1477000" lon="120.6768487"><ele>81.7</ele></trkpt>
      <trkpt lat="24.1477000" lon="120.6769472"><ele>81.7</ele></trkpt>
      <trkpt lat="24.1477000" lon="120.6770456"><ele>81.8</ele></trkpt>
      <trkpt lat="24.1477000" lon="120.6771440"><ele>81.8</ele></trkpt>
      <trkpt lat="24.1477000" lon="120.6772425"><ele>81.8</ele></trkpt>
      <trkpt lat="24.1477000" lon="120.6773409"><ele>81.9</ele></trkpt>
      <trkpt lat="24.1477000" lon="120.6774394"><ele>82.0</ele></trkpt>
      <trkpt lat="24.1477000" lon="120.6775378"><ele>82.0</ele></trkpt>
      <trkpt lat="24.1477000" lon="120.6776363"><ele>82.0</ele></trkpt>
      <trkpt lat="24.1477000" lon="120.6777347"><ele>82.1</ele></trkpt>
      <trkpt lat="24.1477000" lon="120.6778332"><ele>82.2</ele></trkpt>
      <trkpt lat="24.1477000" lon="120.6779316"><ele>82.2</ele></trkpt>
      <trkpt lat="24.1477000" lon="120.6780301"><ele>82.2</ele></trkpt>
      <trkpt lat="24.1477000" lon="120.6781285"><ele>82.3</ele></trkpt>
      <trkpt lat="24.1477000" lon="120.6782269"><ele>82.3</ele></trkpt>
      <trkpt lat="24.1477000" lon="120.6783254"><ele>82.4</ele></trkpt>
      <trkpt lat="24.1477000" lon="120.6784238"><ele>82.5</ele></trkpt>
      <trkpt lat="24.1477000" lon="120.6785223"><ele>82.5</ele></trkpt>
      <trkpt lat="24.1477000" lon="120.6786207"><ele>82.5</ele></trkpt>
      <trkpt lat="24.1477000" lon="120.6787192"><ele>82.6</ele></trkpt>
      <trkpt lat="24.1477000" lon="120.6788176"><ele>82.7</ele></trkpt>
      <trkpt lat="24.1477000" lon="120.6789161"><ele>82.7</ele></trkpt>
      <trkpt lat="24.1477000" lon="120.6790145"><ele>82.8</ele></trkpt>
      <trkpt lat="24.1477000" lon="120.6791130"><ele>82.8</ele></trkpt>
      <trkpt lat="24.1477000" lon="120.6792114"><ele>82.8</ele></trkpt>
      <trkpt lat="24.1477000" lon="120.6793099"><ele>82.9</ele></trkpt>
      <trkpt lat="24.1477000" lon="120.6794083"><ele>83.0</ele></trkpt>
      <trkpt lat="24.1477000" lon="120.6795067"><ele>83.0</ele></trkpt>
      <trkpt lat="24.1477253" lon="120.6795072"><ele>83.0</ele></trkpt>
      <trkpt lat="24.1477505" lon="120.6795087"><ele>83.1</ele></trkpt>
      <trkpt lat="24.1477756" lon="120.6795111"><ele>83.2</ele></trkpt>
      <trkpt lat="24.1478007" lon="120.6795144"><ele>83.2</ele></trkpt>
      <trkpt lat="24.1478257" lon="120.6795187"><ele>83.2</ele></trkpt>
      <trkpt lat="24.1478505" lon="120.6795240"><ele>83.3</ele></trkpt>
      <trkpt lat="24.1478751" lon="120.6795301"><ele>83.3</ele></trkpt>
      <trkpt lat="24.1478995" lon="120.6795373"><ele>83.4</ele></trkpt>
      <trkpt lat="24.1479236" lon="120.6795453"><ele>83.5</ele></trkpt>
      <trkpt lat="24.1479475" lon="120.6795542"><ele>83.5</ele></trkpt>
      <trkpt lat="24.1479711" lon="120.6795641"><ele>83.5</ele></trkpt>
      <trkpt lat="24.1479944" lon="120.6795748"><ele>83.6</ele></trkpt>
      <trkpt lat="24.1480173" lon="120.6795864"><ele>83.7</ele></trkpt>
      <trkpt lat="24.1480398" lon="120.6795989"><ele>83.7</ele></trkpt>
      <trkpt lat="24.1480619" lon="120.6796123"><ele>83.8</ele></trkpt>
      <trkpt lat="24.1480835" lon="120.6796264"><ele>83.8</ele></trkpt>
      <trkpt lat="24.1481047" lon="120.6796414"><ele>83.8</ele></trkpt>
      <trkpt lat="24.1481254" lon="120.6796572"><ele>83.9</ele></trkpt>
      <trkpt lat="24.1481456" lon="120.6796737"><ele>84.0</ele></trkpt>
      <trkpt lat="24.1481652" lon="120.6796910"><ele>84.0</ele></trkpt>
      <trkpt lat="24.1481843" lon="120.6797090"><ele>84.0</ele></trkpt>
      <trkpt lat="24.1482027" lon="120.6797278"><ele>84.1</ele></trkpt>
      <trkpt lat="24.1482206" lon="120.6797472"><ele>84.2</ele></trkpt>
      <trkpt lat="24.1482378" lon="120.6797673"><ele>84.2</ele></trkpt>
      <trkpt lat="24.1482544" lon="120.6797881"><ele>84.2</ele></trkpt>
      <trkpt lat="24.1482703" lon="120.6798094"><ele>84.3</ele></trkpt>
      <trkpt lat="24.1482855" lon="120.6798314"><ele>84.3</ele></trkpt>
      <trkpt lat="24.1483000" lon="120.6798539"><ele>84.4</ele></trkpt>
      <trkpt lat="24.1483137" lon="120.6798770"><ele>84.5</ele></trkpt>
      <trkpt lat="24.1483268" lon="120.6799005"><ele>84.5</ele></trkpt>
      <trkpt lat="24.1483390" lon="120.6799246"><ele>84.5</ele></trkpt>
      <trkpt lat="24.1483505" lon="120.6799491"><ele>84.6</ele></trkpt>
      <trkpt lat="24.1483612" lon="120.6799740"><ele>84.7</ele></trkpt>
      <trkpt lat="24.1483710" lon="120.6799993"><ele>84.7</ele></trkpt>
      <trkpt lat="24.1483801" lon="120.6800249"><ele>84.8</ele></trkpt>
      <trkpt lat="24.1483883" lon="120.6800509"><ele>84.8</ele></trkpt>
      <trkpt lat="24.1483957" lon="120.6800772"><ele>84.8</ele></trkpt>
      <trkpt lat="24.1484022" lon="120.6801038"><ele>84.9</ele></trkpt>
      <trkpt lat="24.1484079" lon="120.6801306"><ele>85.0</ele></trkpt>
      <trkpt lat="24.1484127" lon="120.6801575"><ele>85.0</ele></trkpt>
      <trkpt lat="24.1484167" lon="120.6801847"><ele>85.0</ele></trkpt>
      <trkpt lat="24.1484198" lon="120.6802120"><ele>85.1</ele></trkpt>
      <trkpt lat="24.1484220" lon="120.6802394"><ele>85.2</ele></trkpt>
      <trkpt lat="24.1484233" lon="120.6802668"><ele>85.2</ele></trkpt>
      <trkpt lat="24.1484237" lon="120.6802943"><ele>85.2</ele></trkpt>
      <trkpt lat="24.1485142" lon="120.6802943"><ele>85.3</ele></trkpt>
      <trkpt lat="24.1486046" lon="120.6802943"><ele>85.3</ele></trkpt>
      <trkpt lat="24.1486951" lon="120.6802943"><ele>85.4</ele></trkpt>
      <trkpt lat="24.1487856" lon="120.6802943"><ele>85.5</ele></trkpt>
      <trkpt lat="24.1488760" lon="120.6802943"><ele>85.5</ele></trkpt>
      <trkpt lat="24.1489665" lon="120.6802943"><ele>85.5</ele></trkpt>
      <trkpt lat="24.1490570" lon="120.6802943"><ele>85.6</ele></trkpt>
      <trkpt lat="24.1491474" lon="120.6802943"><ele>85.7</ele></trkpt>
      <trkpt lat="24.1492379" lon="120.6802943"><ele>85.7</ele></trkpt>
      <trkpt lat="24.1493284" lon="120.6802943"><ele>85.8</ele></trkpt>
      <trkpt lat="24.1494188" lon="120.6802943"><ele>85.8</ele></trkpt>
      <trkpt lat="24.1495093" lon="120.6802943"><ele>85.8</ele></trkpt>
      <trkpt lat="24.1495998" lon="120.6802943"><ele>85.9</ele></trkpt>
      <trkpt lat="24.1496902" lon="120.6802943"><ele>86.0</ele></trkpt>
      <trkpt lat="24.1497807" lon="120.6802943"><ele>86.0</ele></trkpt>
      <trkpt lat="24.1498712" lon="120.6802943"><ele>86.0</ele></trkpt>
      <trkpt lat="24.1499616" lon="120.6802943"><ele>86.1</ele></trkpt>
      <trkpt lat="24.1500521" lon="120.6802943"><ele>86.2</ele></trkpt>
      <trkpt lat="24.1501426" lon="120.6802943"><ele>86.2</ele></trkpt>
      <trkpt lat="24.1502330" lon="120.6802943"><ele>86.2</ele></trkpt>
      <trkpt lat="24.1503235" lon="120.6802943"><ele>86.3</ele></trkpt>
      <trkpt lat="24.1504139" lon="120.6802943"><ele>86.3</ele></trkpt>
      <trkpt lat="24.1505044" lon="120.6802943"><ele>86.4</ele></trkpt>
      <trkpt lat="24.1505949" lon="120.6802943"><ele>86.5</ele></trkpt>
      <trkpt lat="24.1506853" lon="120.6802943"><ele>86.5</ele></trkpt>
      <trkpt lat="24.1507758" lon="120.6802943"><ele>86.5</ele></trkpt>
      <trkpt lat="24.1508663" lon="120.6802943"><ele>86.6</ele></trkpt>
      <trkpt lat="24.1509567" lon="120.6802943"><ele>86.7</ele></trkpt>
      <trkpt lat="24.1510472" lon="120.6802943"><ele>86.7</ele></trkpt>
      <trkpt lat="24.1511377" lon="120.6802943"><ele>86.8</ele></trkpt>
      <trkpt lat="24.1512281" lon="120.6802943"><ele>86.8</ele></trkpt>
      <trkpt lat="24.1513186" lon="120.6802943"><ele>86.8</ele></trkpt>
      <trkpt lat="24.1514091" lon="120.6802943"><ele>86.9</ele></trkpt>
      <trkpt lat="24.1514995" lon="120.6802943"><ele>87.0</ele></trkpt>
      <trkpt lat="24.1515900" lon="120.6802943"><ele>87.0</ele></trkpt>
      <trkpt lat="24.1516805" lon="120.6802943"><ele>87.0</ele></trkpt>
      <trkpt lat="24.1517709" lon="120.6802943"><ele>87.1</ele></trkpt>
      <trkpt lat="24.1518614" lon="120.6802943"><ele>87.2</ele></trkpt>
      <trkpt lat="24.1519519" lon="120.6802943"><ele>87.2</ele></trkpt>
      <trkpt lat="24.1520423" lon="120.6802943"><ele>87.2</ele></trkpt>
      <trkpt lat="24.1521328" lon="120.6802943"><ele>87.3</ele></trkpt>
      <trkpt lat="24.1522232" lon="120.6802943"><ele>87.3</ele></trkpt>
      <trkpt lat="24.1523137" lon="120.6802943"><ele>87.4</ele></trkpt>
      <trkpt lat="24.1524042" lon="120.6802943"><ele>87.5</ele></trkpt>
      <trkpt lat="24.1524946" lon="120.6802943"><ele>87.5</ele></trkpt>
      <trkpt lat="24.1525851" lon="120.6802943"><ele>87.5</ele></trkpt>
      <trkpt lat="24.1526756" lon="120.6802943"><ele>87.6</ele></trkpt>
      <trkpt lat="24.1527660" lon="120.6802943"><ele>87.7</ele></trkpt>
      <trkpt lat="24.1528565" lon="120.6802943"><ele>87.7</ele></trkpt>
      <trkpt lat="24.1529470" lon="120.6802943"><ele>87.8</ele></trkpt>
      <trkpt lat="24.1530374" lon="120.6802943"><ele>87.8</ele></trkpt>
      <trkpt lat="24.1531279" lon="120.6802943"><ele>87.8</ele></trkpt>
      <trkpt lat="24.1532184" lon="120.6802943"><ele>87.9</ele></trkpt>
      <trkpt lat="24.1533088" lon="120.6802943"><ele>88.0</ele></trkpt>
      <trkpt lat="24.1533993" lon="120.6802943"><ele>88.0</ele></trkpt>
      <trkpt lat="24.1534898" lon="120.6802943"><ele>88.0</ele></trkpt>
      <trkpt lat="24.1535802" lon="120.6802943"><ele>88.1</ele></trkpt>
      <trkpt lat="24.1536707" lon="120.6802943"><ele>88.2</ele></trkpt>
      <trkpt lat="24.1537612" lon="120.6802943"><ele>88.2</ele></trkpt>
      <trkpt lat="24.1538516" lon="120.6802943"><ele>88.2</ele></trkpt>
      <trkpt lat="24.1539421" lon="120.6802943"><ele>88.3</ele></trkpt>
      <trkpt lat="24.1540325" lon="120.6802943"><ele>88.3</ele></trkpt>
      <trkpt lat="24.1541230" lon="120.6802943"><ele>88.4</ele></trkpt>
      <trkpt lat="24.1542135" lon="120.6802943"><ele>88.5</ele></trkpt>
      <trkpt lat="24.1543039" lon="120.6802943"><ele>88.5</ele></trkpt>
      <trkpt lat="24.1543944" lon="120.6802943"><ele>88.5</ele></trkpt>
      <trkpt lat="24.1544849" lon="120.6802943"><ele>88.6</ele></trkpt>
      <trkpt lat="24.1545753" lon="120.6802943"><ele>88.7</ele></trkpt>
      <trkpt lat="24.1546658" lon="120.6802943"><ele>88.7</ele></trkpt>
      <trkpt lat="24.1547563" lon="120.6802943"><ele>88.8</ele></trkpt>
      <trkpt lat="24.1548467" lon="120.6802943"><ele>88.8</ele></trkpt>
      <trkpt lat="24.1549372" lon="120.6802943"><ele>88.8</ele></trkpt>
      <trkpt lat="24.1550277" lon="120.6802943"><ele>88.9</ele></trkpt>
      <trkpt lat="24.1551181" lon="120.6802943"><ele>89.0</ele></trkpt>
      <trkpt lat="24.1552086" lon="120.6802943"><ele>89.0</ele></trkpt>
      <trkpt lat="24.1552991" lon="120.6802943"><ele>89.0</ele></trkpt>
      <trkpt lat="24.1553895" lon="120.6802943"><ele>89.1</ele></trkpt>
      <trkpt lat="24.1554800" lon="120.6802943"><ele>89.2</ele></trkpt>
      <trkpt lat="24.1555705" lon="120.6802943"><ele>89.2</ele></trkpt>
      <trkpt lat="24.1556609" lon="120.6802943"><ele>89.2</ele></trkpt>
      <trkpt lat="24.1557514" lon="120.6802943"><ele>89.3</ele></trkpt>
      <trkpt lat="24.1558418" lon="120.6802943"><ele>89.3</ele></trkpt>
      <trkpt lat="24.1559323" lon="120.6802943"><ele>89.4</ele></trkpt>
      <trkpt lat="24.1560228" lon="120.6802943"><ele>89.5</ele></trkpt>
      <trkpt lat="24.1561132" lon="120.6802943"><ele>89.5</ele></trkpt>
      <trkpt lat="24.1562037" lon="120.6802943"><ele>89.5</ele></trkpt>
      <trkpt lat="24.1562942" lon="120.6802943"><ele>89.6</ele></trkpt>
      <trkpt lat="24.1563846" lon="120.6802943"><ele>89.7</ele></trkpt>
      <trkpt lat="24.1564751" lon="120.6802943"><ele>89.7</ele></trkpt>
      <trkpt lat="24.1565656" lon="120.6802943"><ele>89.8</ele></trkpt>
    </trkseg>
  </trk>
</gpx>
